[{"OBJECT_NAME":"STARLINK-4005","OBJECT_ID":"2022-053AG","EPOCH":"2026-03-09T10:27:10.364832","MEAN_MOTION":15.08834601,"ECCENTRICITY":0.00014565,"INCLINATION":53.2178,"RA_OF_ASC_NODE":145.5399,"ARG_OF_PERICENTER":100.1869,"MEAN_ANOMALY":259.9287,"EPHEMERIS_TYPE":0,"CLASSIFICATION_TYPE":"U","NORAD_CAT_ID":52686,"ELEMENT_SET_NO":999,"REV_AT_EPOCH":21108,"BSTAR":2.3463516e-5,"MEAN_MOTION_DOT":8.5e-7,"MEAN_MOTION_DDOT":0},{"OBJECT_NAME":"OBJECT BE","OBJECT_ID":"2018-099BE","EPOCH":"2026-03-09T15:10:24.322944","MEAN_MOTION":15.09972337,"ECCENTRICITY":0.0006427,"INCLINATION":97.4031,"RA_OF_ASC_NODE":111.7891,"ARG_OF_PERICENTER":340.4925,"MEAN_ANOMALY":19.6058,"EPHEMERIS_TYPE":0,"CLASSIFICATION_TYPE":"U","NORAD_CAT_ID":43810,"ELEMENT_SET_NO":999,"REV_AT_EPOCH":39698,"BSTAR":0.00027209,"MEAN_MOTION_DOT":4.358e-5,"MEAN_MOTION_DDOT":0}]
